{"type": "FeatureCollection", "features": [ {"type": "Feature", "properties": {"norad_id": 43565, "name": "GSAT0222 (GALILEO 26)", "group": "gnss", "lat": -36.70648162078367, "lon": -164.64729069813797, "alt_km": 23212.701731450656, "timestamp": "2025-12-18T23:35:49.301737+00:00", "meta": {"OBJECT_NAME": "GSAT0222 (GALILEO 26)", "OBJECT_ID": "2018-060B", "EPOCH": "2025-12-18T00:42:17.845344", "MEAN_MOTION": 1.70475645, "ECCENTRICITY": 0.00060883, "INCLINATION": 57.23, "RA_OF_ASC_NODE": 346.6777, "ARG_OF_PERICENTER": 265.4214, "MEAN_ANOMALY": 94.5238, "EPHEMERIS_TYPE": 0, "CLASSIFICATION_TYPE": "U", "NORAD_CAT_ID": 43565, "ELEMENT_SET_NO": 999, "REV_AT_EPOCH": 4612, "BSTAR": 0, "MEAN_MOTION_DOT": -7.6e-07, "MEAN_MOTION_DDOT": 0}, "tle": {"line1": "1 43565U 18060B   25352.02937321 -.00000076  00000+0  00000+0 0  9994", "line2": "2 43565  57.2300 346.6777 0006088 265.4214  94.5238  1.70475645 46121"}}, "geometry": {"type": "Point", "coordinates": [-164.64729069813797, -36.70648162078367]}}, {"type": "Feature", "properties": {"norad_id": 43566, "name": "GSAT0219 (GALILEO 23)", "group": "gnss", "lat": 57.20574031789519, "lon": 76.01660355799633, "alt_km": 23231.79935199277, "timestamp": "2025-12-18T23:35:49.301755+00:00", "meta": {"OBJECT_NAME": "GSAT0219 (GALILEO 23)", "OBJECT_ID": "2018-060C", "EPOCH": "2025-12-18T06:00:44.239392", "MEAN_MOTION": 1.70475851, "ECCENTRICITY": 0.00058764, "INCLINATION": 57.2293, "RA_OF_ASC_NODE": 346.6733, "ARG_OF_PERICENTER": 290.2618, "MEAN_ANOMALY": 69.6893, "EPHEMERIS_TYPE": 0, "CLASSIFICATION_TYPE": "U", "NORAD_CAT_ID": 43566, "ELEMENT_SET_NO": 999, "REV_AT_EPOCH": 4610, "BSTAR": 0, "MEAN_MOTION_DOT": -7.6e-07, "MEAN_MOTION_DDOT": 0}, "tle": {"line1": "1 43566U 18060C   25352.25051203 -.00000076  00000+0  00000+0 0  9996", "line2": "2 43566  57.2293 346.6733 0005876 290.2618  69.6893  1.70475851 46100"}}, "geometry": {"type": "Point", "coordinates": [76.01660355799633, 57.20574031789519]}}, {"type": "Feature", "properties": {"norad_id": 43567, "name": "GSAT0220 (GALILEO 24)", "group": "gnss", "lat": -37.16307443287785, "lon": -42.587172995164664, "alt_km": 23210.641720376505, "timestamp": "2025-12-18T23:35:49.301772+00:00", "meta": {"OBJECT_NAME": "GSAT0220 (GALILEO 24)", "OBJECT_ID": "2018-060D", "EPOCH": "2025-12-17T07:09:30.654144", "MEAN_MOTION": 1.70475982, "ECCENTRICITY": 0.00060597, "INCLINATION": 57.2291, "RA_OF_ASC_NODE": 346.699, "ARG_OF_PERICENTER": 286.0855, "MEAN_ANOMALY": 73.8638, "EPHEMERIS_TYPE": 0, "CLASSIFICATION_TYPE": "U", "NORAD_CAT_ID": 43567, "ELEMENT_SET_NO": 999, "REV_AT_EPOCH": 4607, "BSTAR": 0, "MEAN_MOTION_DOT": -7.8e-07, "MEAN_MOTION_DDOT": 0}, "tle": {"line1": "1 43567U 18060D   25351.29827146 -.00000078  00000+0  00000+0 0  9999", "line2": "2 43567  57.2291 346.6990 0006059 286.0855  73.8638  1.70475982 46079"}}, "geometry": {"type": "Point", "coordinates": [-42.587172995164664, -37.16307443287785]}}, {"type": "Feature", "properties": {"norad_id": 43581, "name": "BEIDOU-3 M5 (C23)", "group": "gnss", "lat": -13.38106987805228, "lon": 18.36884867831804, "alt_km": 21535.630367773178, "timestamp": "2025-12-18T23:35:49.301789+00:00", "meta": {"OBJECT_NAME": "BEIDOU-3 M5 (C23)", "OBJECT_ID": "2018-062A", "EPOCH": "2025-12-17T01:53:59.361792", "MEAN_MOTION": 1.86228923, "ECCENTRICITY": 0.00020674, "INCLINATION": 54.0895, "RA_OF_ASC_NODE": 188.4955, "ARG_OF_PERICENTER": 356.8892, "MEAN_ANOMALY": 3.1782, "EPHEMERIS_TYPE": 0, "CLASSIFICATION_TYPE": "U", "NORAD_CAT_ID": 43581, "ELEMENT_SET_NO": 999, "REV_AT_EPOCH": 5024, "BSTAR": 0, "MEAN_MOTION_DOT": 1.14e-06, "MEAN_MOTION_DDOT": 0}, "tle": {"line1": "1 43581U 18062A   25351.07915928  .00000114  00000+0  00000+0 0  9999", "line2": "2 43581  54.0895 188.4955 0002067 356.8892   3.1782  1.86228923 50243"}}, "geometry": {"type": "Point", "coordinates": [18.36884867831804, -13.38106987805228]}}, {"type": "Feature", "properties": {"norad_id": 43582, "name": "BEIDOU-3 M6 (C24)", "group": "gnss", "lat": -50.19358073329917, "lon": 127.96504271009313, "alt_km": 21544.425601073577, "timestamp": "2025-12-18T23:35:49.301806+00:00", "meta": {"OBJECT_NAME": "BEIDOU-3 M6 (C24)", "OBJECT_ID": "2018-062B", "EPOCH": "2025-12-18T00:23:12.259968", "MEAN_MOTION": 1.86229952, "ECCENTRICITY": 0.00078372, "INCLINATION": 54.0891, "RA_OF_ASC_NODE": 188.4528, "ARG_OF_PERICENTER": 47.7556, "MEAN_ANOMALY": 312.3777, "EPHEMERIS_TYPE": 0, "CLASSIFICATION_TYPE": "U", "NORAD_CAT_ID": 43582, "ELEMENT_SET_NO": 999, "REV_AT_EPOCH": 5026, "BSTAR": 0, "MEAN_MOTION_DOT": 1.1e-06, "MEAN_MOTION_DDOT": 0}, "tle": {"line1": "1 43582U 18062B   25352.01611412  .00000110  00000+0  00000+0 0  9992", "line2": "2 43582  54.0891 188.4528 0007837  47.7556 312.3777  1.86229952 50263"}}, "geometry": {"type": "Point", "coordinates": [127.96504271009313, -50.19358073329917]}}, {"type": "Feature", "properties": {"norad_id": 43602, "name": "BEIDOU-3 M12 (C26)", "group": "gnss", "lat": -23.906277744939665, "lon": 168.4766434883091, "alt_km": 21523.142631584244, "timestamp": "2025-12-18T23:35:49.301826+00:00", "meta": {"OBJECT_NAME": "BEIDOU-3 M12 (C26)", "OBJECT_ID": "2018-067A", "EPOCH": "2025-12-17T22:53:45.555072", "MEAN_MOTION": 1.86227791, "ECCENTRICITY": 0.00092249, "INCLINATION": 54.1833, "RA_OF_ASC_NODE": 187.186, "ARG_OF_PERICENTER": 41.0055, "MEAN_ANOMALY": 319.1284, "EPHEMERIS_TYPE": 0, "CLASSIFICATION_TYPE": "U", "NORAD_CAT_ID": 43602, "ELEMENT_SET_NO": 999, "REV_AT_EPOCH": 4974, "BSTAR": 0, "MEAN_MOTION_DOT": 1.1e-06, "MEAN_MOTION_DDOT": 0}, "tle": {"line1": "1 43602U 18067A   25351.95399948  .00000110  00000+0  00000+0 0  9999", "line2": "2 43602  54.1833 187.1860 0009224  41.0055 319.1284  1.86227791 49749"}}, "geometry": {"type": "Point", "coordinates": [168.4766434883091, -23.906277744939665]}}, {"type": "Feature", "properties": {"norad_id": 43603, "name": "BEIDOU-3 M11 (C25)", "group": "gnss", "lat": -44.519655857267225, "lon": 52.40555891918614, "alt_km": 21547.945266822466, "timestamp": "2025-12-18T23:35:49.301844+00:00", "meta": {"OBJECT_NAME": "BEIDOU-3 M11 (C25)", "OBJECT_ID": "2018-067B", "EPOCH": "2025-12-18T02:07:28.250688", "MEAN_MOTION": 1.86227303, "ECCENTRICITY": 0.00056103, "INCLINATION": 54.1805, "RA_OF_ASC_NODE": 187.1455, "ARG_OF_PERICENTER": 36.7465, "MEAN_ANOMALY": 323.3559, "EPHEMERIS_TYPE": 0, "CLASSIFICATION_TYPE": "U", "NORAD_CAT_ID": 43603, "ELEMENT_SET_NO": 999, "REV_AT_EPOCH": 4977, "BSTAR": 0, "MEAN_MOTION_DOT": 1.09e-06, "MEAN_MOTION_DDOT": 0}, "tle": {"line1": "1 43603U 18067B   25352.08852142  .00000109  00000+0  00000+0 0  9993", "line2": "2 43603  54.1805 187.1455 0005610  36.7465 323.3559  1.86227303 49774"}}, "geometry": {"type": "Point", "coordinates": [52.40555891918614, -44.519655857267225]}}, {"type": "Feature", "properties": {"norad_id": 43622, "name": "BEIDOU-3 M13 (C32)", "group": "gnss", "lat": -56.47500550202723, "lon": -23.24656004984648, "alt_km": 21519.5569388712, "timestamp": "2025-12-18T23:35:49.301861+00:00", "meta": {"OBJECT_NAME": "BEIDOU-3 M13 (C32)", "OBJECT_ID": "2018-072A", "EPOCH": "2025-12-18T01:04:45.720768", "MEAN_MOTION": 1.86231064, "ECCENTRICITY": 0.00060078, "INCLINATION": 56.4641, "RA_OF_ASC_NODE": 68.6443, "ARG_OF_PERICENTER": 298.9487, "MEAN_ANOMALY": 61.0199, "EPHEMERIS_TYPE": 0, "CLASSIFICATION_TYPE": "U", "NORAD_CAT_ID": 43622, "ELEMENT_SET_NO": 999, "REV_AT_EPOCH": 4928, "BSTAR": 0, "MEAN_MOTION_DOT": -6.7e-07, "MEAN_MOTION_DDOT": 0}, "tle": {"line1": "1 43622U 18072A   25352.04497362 -.00000067  00000+0  00000+0 0  9999", "line2": "2 43622  56.4641  68.6443 0006007 298.9487  61.0199  1.86231064 49286"}}, "geometry": {"type": "Point", "coordinates": [-23.24656004984648, -56.47500550202723]}}, {"type": "Feature", "properties": {"norad_id": 43623, "name": "BEIDOU-3 M14 (C33)", "group": "gnss", "lat": -0.6424200825444492, "lon": 68.19682867143393, "alt_km": 21520.090431384113, "timestamp": "2025-12-18T23:35:49.301878+00:00", "meta": {"OBJECT_NAME": "BEIDOU-3 M14 (C33)", "OBJECT_ID": "2018-072B", "EPOCH": "2025-12-18T10:44:15.262368", "MEAN_MOTION": 1.8623104, "ECCENTRICITY": 0.00033898, "INCLINATION": 56.4661, "RA_OF_ASC_NODE": 68.625, "ARG_OF_PERICENTER": 331.3053, "MEAN_ANOMALY": 28.7068, "EPHEMERIS_TYPE": 0, "CLASSIFICATION_TYPE": "U", "NORAD_CAT_ID": 43623, "ELEMENT_SET_NO": 999, "REV_AT_EPOCH": 4928, "BSTAR": 0, "MEAN_MOTION_DOT": -6.3e-07, "MEAN_MOTION_DDOT": 0}, "tle": {"line1": "1 43623U 18072B   25352.44739887 -.00000063  00000+0  00000+0 0  9991", "line2": "2 43623  56.4661  68.6250 0003389 331.3053  28.7068  1.86231040 49285"}}, "geometry": {"type": "Point", "coordinates": [68.19682867143393, -0.6424200825444492]}}, {"type": "Feature", "properties": {"norad_id": 43647, "name": "BEIDOU-3 M16 (C35)", "group": "gnss", "lat": -51.09402676093852, "lon": -170.65449123792385, "alt_km": 21545.556917936177, "timestamp": "2025-12-18T23:35:49.301895+00:00", "meta": {"OBJECT_NAME": "BEIDOU-3 M16 (C35)", "OBJECT_ID": "2018-078A", "EPOCH": "2025-12-18T01:38:11.471712", "MEAN_MOTION": 1.86232421, "ECCENTRICITY": 0.00073225, "INCLINATION": 54.2571, "RA_OF_ASC_NODE": 306.335, "ARG_OF_PERICENTER": 19.7633, "MEAN_ANOMALY": 340.2526, "EPHEMERIS_TYPE": 0, "CLASSIFICATION_TYPE": "U", "NORAD_CAT_ID": 43647, "ELEMENT_SET_NO": 999, "REV_AT_EPOCH": 4878, "BSTAR": 0, "MEAN_MOTION_DOT": -8.5e-07, "MEAN_MOTION_DDOT": 0}, "tle": {"line1": "1 43647U 18078A   25352.06818833 -.00000085  00000+0  00000+0 0  9994", "line2": "2 43647  54.2571 306.3350 0007322  19.7633 340.2526  1.86232421 48781"}}, "geometry": {"type": "Point", "coordinates": [-170.65449123792385, -51.09402676093852]}}]}